{"type":"Topology","objects":{"collection":{"type":"GeometryCollection","geometries":[{"type":"Polygon","arcs":[[0,1]],"properties":{"featurecla":"Admin-0 country","scalerank":1,"labelrank":5,"sovereignt":"Czechia","sov_a3":"CZE","adm0_dif":0,"level":2,"type":"Sovereign country","tlc":"1","admin":"Czechia","adm0_a3":"CZE","geou_dif":0,"geounit":"Czechia","gu_a3":"CZE","su_dif":0,"subunit":"Czechia","su_a3":"CZE","brk_diff":0,"name":"Czechia","name_long":"Czech Republic","brk_a3":"CZE","brk_name":"Czechia","brk_group":null,"abbrev":"Cz.","postal":"CZ","formal_en":"Czech Republic","formal_fr":"la République tchèque","name_ciawf":"Czechia","note_adm0":null,"note_brk":null,"name_sort":"Czechia","name_alt":"Česko","mapcolor7":1,"mapcolor8":1,"mapcolor9":2,"mapcolor13":6,"pop_est":10669709,"pop_rank":14,"pop_year":2019,"gdp_md":250680,"gdp_year":2019,"economy":"2. Developed region: nonG7","income_grp":"1. High income: OECD","fips_10":"EZ","iso_a2":"CZ","iso_a2_eh":"CZ","iso_a3":"CZE","iso_a3_eh":"CZE","iso_n3":"203","iso_n3_eh":"203","un_a3":"203","wb_a2":"CZ","wb_a3":"CZE","woe_id":23424810,"woe_id_eh":23424810,"woe_note":"Exact WOE match as country","adm0_iso":"CZE","adm0_diff":null,"adm0_tlc":"CZE","adm0_a3_us":"CZE","adm0_a3_fr":"CZE","adm0_a3_ru":"CZE","adm0_a3_es":"CZE","adm0_a3_cn":"CZE","adm0_a3_tw":"CZE","adm0_a3_in":"CZE","adm0_a3_np":"CZE","adm0_a3_pk":"CZE","adm0_a3_de":"CZE","adm0_a3_gb":"CZE","adm0_a3_br":"CZE","adm0_a3_il":"CZE","adm0_a3_ps":"CZE","adm0_a3_sa":"CZE","adm0_a3_eg":"CZE","adm0_a3_ma":"CZE","adm0_a3_pt":"CZE","adm0_a3_ar":"CZE","adm0_a3_jp":"CZE","adm0_a3_ko":"CZE","adm0_a3_vn":"CZE","adm0_a3_tr":"CZE","adm0_a3_id":"CZE","adm0_a3_pl":"CZE","adm0_a3_gr":"CZE","adm0_a3_it":"CZE","adm0_a3_nl":"CZE","adm0_a3_se":"CZE","adm0_a3_bd":"CZE","adm0_a3_ua":"CZE","adm0_a3_un":-99,"adm0_a3_wb":-99,"continent":"Europe","region_un":"Europe","subregion":"Eastern Europe","region_wb":"Europe & Central Asia","name_len":7,"long_len":14,"abbrev_len":3,"tiny":-99,"homepart":1,"min_zoom":0,"min_label":4,"max_label":9,"label_x":15.377555,"label_y":49.882364,"ne_id":1159320535,"wikidataid":"Q213","name_ar":"التشيك","name_bn":"চেক প্রজাতন্ত্র","name_de":"Tschechien","name_en":"Czech Republic","name_es":"República Checa","name_fa":"جمهوری چک","name_fr":"Tchéquie","name_el":"Τσεχία","name_he":"צ'כיה","name_hi":"चेक गणराज्य","name_hu":"Csehország","name_id":"Republik Ceko","name_it":"Repubblica Ceca","name_ja":"チェコ","name_ko":"체코","name_nl":"Tsjechië","name_pl":"Czechy","name_pt":"Chéquia","name_ru":"Чехия","name_sv":"Tjeckien","name_tr":"Çek Cumhuriyeti","name_uk":"Чехія","name_ur":"چیک جمہوریہ","name_vi":"Cộng hòa Séc","name_zh":"捷克","name_zht":"捷克共和國","fclass_iso":"Admin-0 country","tlc_diff":null,"fclass_tlc":"Admin-0 country","fclass_us":null,"fclass_fr":null,"fclass_ru":null,"fclass_es":null,"fclass_cn":null,"fclass_tw":null,"fclass_in":null,"fclass_np":null,"fclass_pk":null,"fclass_de":null,"fclass_gb":null,"fclass_br":null,"fclass_il":null,"fclass_ps":null,"fclass_sa":null,"fclass_eg":null,"fclass_ma":null,"fclass_pt":null,"fclass_ar":null,"fclass_jp":null,"fclass_ko":null,"fclass_vn":null,"fclass_tr":null,"fclass_id":null,"fclass_pl":null,"fclass_gr":null,"fclass_it":null,"fclass_nl":null,"fclass_se":null,"fclass_bd":null,"fclass_ua":null,"filename":"CZE.geojson"}},{"type":"Polygon","arcs":[[2,3,-1,4]],"properties":{"featurecla":"Admin-0 country","scalerank":1,"labelrank":6,"sovereignt":"Slovakia","sov_a3":"SVK","adm0_dif":0,"level":2,"type":"Sovereign country","tlc":"1","admin":"Slovakia","adm0_a3":"SVK","geou_dif":0,"geounit":"Slovakia","gu_a3":"SVK","su_dif":0,"subunit":"Slovakia","su_a3":"SVK","brk_diff":0,"name":"Slovakia","name_long":"Slovakia","brk_a3":"SVK","brk_name":"Slovakia","brk_group":null,"abbrev":"Svk.","postal":"SK","formal_en":"Slovak Republic","formal_fr":null,"name_ciawf":"Slovakia","note_adm0":null,"note_brk":null,"name_sort":"Slovak Republic","name_alt":null,"mapcolor7":2,"mapcolor8":4,"mapcolor9":4,"mapcolor13":9,"pop_est":5454073,"pop_rank":13,"pop_year":2019,"gdp_md":105079,"gdp_year":2019,"economy":"2. Developed region: nonG7","income_grp":"1. High income: OECD","fips_10":"LO","iso_a2":"SK","iso_a2_eh":"SK","iso_a3":"SVK","iso_a3_eh":"SVK","iso_n3":"703","iso_n3_eh":"703","un_a3":"703","wb_a2":"SK","wb_a3":"SVK","woe_id":23424877,"woe_id_eh":23424877,"woe_note":"Exact WOE match as country","adm0_iso":"SVK","adm0_diff":null,"adm0_tlc":"SVK","adm0_a3_us":"SVK","adm0_a3_fr":"SVK","adm0_a3_ru":"SVK","adm0_a3_es":"SVK","adm0_a3_cn":"SVK","adm0_a3_tw":"SVK","adm0_a3_in":"SVK","adm0_a3_np":"SVK","adm0_a3_pk":"SVK","adm0_a3_de":"SVK","adm0_a3_gb":"SVK","adm0_a3_br":"SVK","adm0_a3_il":"SVK","adm0_a3_ps":"SVK","adm0_a3_sa":"SVK","adm0_a3_eg":"SVK","adm0_a3_ma":"SVK","adm0_a3_pt":"SVK","adm0_a3_ar":"SVK","adm0_a3_jp":"SVK","adm0_a3_ko":"SVK","adm0_a3_vn":"SVK","adm0_a3_tr":"SVK","adm0_a3_id":"SVK","adm0_a3_pl":"SVK","adm0_a3_gr":"SVK","adm0_a3_it":"SVK","adm0_a3_nl":"SVK","adm0_a3_se":"SVK","adm0_a3_bd":"SVK","adm0_a3_ua":"SVK","adm0_a3_un":-99,"adm0_a3_wb":-99,"continent":"Europe","region_un":"Europe","subregion":"Eastern Europe","region_wb":"Europe & Central Asia","name_len":8,"long_len":8,"abbrev_len":4,"tiny":-99,"homepart":1,"min_zoom":0,"min_label":4,"max_label":9,"label_x":19.049868,"label_y":48.734044,"ne_id":1159321283,"wikidataid":"Q214","name_ar":"سلوفاكيا","name_bn":"স্লোভাকিয়া","name_de":"Slowakei","name_en":"Slovakia","name_es":"Eslovaquia","name_fa":"اسلواکی","name_fr":"Slovaquie","name_el":"Σλοβακία","name_he":"סלובקיה","name_hi":"स्लोवाकिया","name_hu":"Szlovákia","name_id":"Slowakia","name_it":"Slovacchia","name_ja":"スロバキア","name_ko":"슬로바키아","name_nl":"Slowakije","name_pl":"Słowacja","name_pt":"Eslováquia","name_ru":"Словакия","name_sv":"Slovakien","name_tr":"Slovakya","name_uk":"Словаччина","name_ur":"سلوواکیہ","name_vi":"Slovakia","name_zh":"斯洛伐克","name_zht":"斯洛伐克","fclass_iso":"Admin-0 country","tlc_diff":null,"fclass_tlc":"Admin-0 country","fclass_us":null,"fclass_fr":null,"fclass_ru":null,"fclass_es":null,"fclass_cn":null,"fclass_tw":null,"fclass_in":null,"fclass_np":null,"fclass_pk":null,"fclass_de":null,"fclass_gb":null,"fclass_br":null,"fclass_il":null,"fclass_ps":null,"fclass_sa":null,"fclass_eg":null,"fclass_ma":null,"fclass_pt":null,"fclass_ar":null,"fclass_jp":null,"fclass_ko":null,"fclass_vn":null,"fclass_tr":null,"fclass_id":null,"fclass_pl":null,"fclass_gr":null,"fclass_it":null,"fclass_nl":null,"fclass_se":null,"fclass_bd":null,"fclass_ua":null,"filename":"SVK.geojson"}},{"type":"Polygon","arcs":[[5,6,7,8,9,10,-3]],"properties":{"featurecla":"Admin-0 country","scalerank":1,"labelrank":5,"sovereignt":"Hungary","sov_a3":"HUN","adm0_dif":0,"level":2,"type":"Sovereign country","tlc":"1","admin":"Hungary","adm0_a3":"HUN","geou_dif":0,"geounit":"Hungary","gu_a3":"HUN","su_dif":0,"subunit":"Hungary","su_a3":"HUN","brk_diff":0,"name":"Hungary","name_long":"Hungary","brk_a3":"HUN","brk_name":"Hungary","brk_group":null,"abbrev":"Hun.","postal":"HU","formal_en":"Republic of Hungary","formal_fr":null,"name_ciawf":"Hungary","note_adm0":null,"note_brk":null,"name_sort":"Hungary","name_alt":null,"mapcolor7":4,"mapcolor8":6,"mapcolor9":1,"mapcolor13":5,"pop_est":9769949,"pop_rank":13,"pop_year":2019,"gdp_md":163469,"gdp_year":2019,"economy":"2. Developed region: nonG7","income_grp":"1. High income: OECD","fips_10":"HU","iso_a2":"HU","iso_a2_eh":"HU","iso_a3":"HUN","iso_a3_eh":"HUN","iso_n3":"348","iso_n3_eh":"348","un_a3":"348","wb_a2":"HU","wb_a3":"HUN","woe_id":23424844,"woe_id_eh":23424844,"woe_note":"Exact WOE match as country","adm0_iso":"HUN","adm0_diff":null,"adm0_tlc":"HUN","adm0_a3_us":"HUN","adm0_a3_fr":"HUN","adm0_a3_ru":"HUN","adm0_a3_es":"HUN","adm0_a3_cn":"HUN","adm0_a3_tw":"HUN","adm0_a3_in":"HUN","adm0_a3_np":"HUN","adm0_a3_pk":"HUN","adm0_a3_de":"HUN","adm0_a3_gb":"HUN","adm0_a3_br":"HUN","adm0_a3_il":"HUN","adm0_a3_ps":"HUN","adm0_a3_sa":"HUN","adm0_a3_eg":"HUN","adm0_a3_ma":"HUN","adm0_a3_pt":"HUN","adm0_a3_ar":"HUN","adm0_a3_jp":"HUN","adm0_a3_ko":"HUN","adm0_a3_vn":"HUN","adm0_a3_tr":"HUN","adm0_a3_id":"HUN","adm0_a3_pl":"HUN","adm0_a3_gr":"HUN","adm0_a3_it":"HUN","adm0_a3_nl":"HUN","adm0_a3_se":"HUN","adm0_a3_bd":"HUN","adm0_a3_ua":"HUN","adm0_a3_un":-99,"adm0_a3_wb":-99,"continent":"Europe","region_un":"Europe","subregion":"Eastern Europe","region_wb":"Europe & Central Asia","name_len":7,"long_len":7,"abbrev_len":4,"tiny":-99,"homepart":1,"min_zoom":0,"min_label":4,"max_label":9,"label_x":19.447867,"label_y":47.086841,"ne_id":1159320841,"wikidataid":"Q28","name_ar":"المجر","name_bn":"হাঙ্গেরি","name_de":"Ungarn","name_en":"Hungary","name_es":"Hungría","name_fa":"مجارستان","name_fr":"Hongrie","name_el":"Ουγγαρία","name_he":"הונגריה","name_hi":"हंगरी","name_hu":"Magyarország","name_id":"Hongaria","name_it":"Ungheria","name_ja":"ハンガリー","name_ko":"헝가리","name_nl":"Hongarije","name_pl":"Węgry","name_pt":"Hungria","name_ru":"Венгрия","name_sv":"Ungern","name_tr":"Macaristan","name_uk":"Угорщина","name_ur":"ہنگری","name_vi":"Hungary","name_zh":"匈牙利","name_zht":"匈牙利","fclass_iso":"Admin-0 country","tlc_diff":null,"fclass_tlc":"Admin-0 country","fclass_us":null,"fclass_fr":null,"fclass_ru":null,"fclass_es":null,"fclass_cn":null,"fclass_tw":null,"fclass_in":null,"fclass_np":null,"fclass_pk":null,"fclass_de":null,"fclass_gb":null,"fclass_br":null,"fclass_il":null,"fclass_ps":null,"fclass_sa":null,"fclass_eg":null,"fclass_ma":null,"fclass_pt":null,"fclass_ar":null,"fclass_jp":null,"fclass_ko":null,"fclass_vn":null,"fclass_tr":null,"fclass_id":null,"fclass_pl":null,"fclass_gr":null,"fclass_it":null,"fclass_nl":null,"fclass_se":null,"fclass_bd":null,"fclass_ua":null,"filename":"HUN.geojson"}},{"type":"Polygon","arcs":[[11,12,-7,13]],"properties":{"featurecla":"Admin-0 country","scalerank":1,"labelrank":3,"sovereignt":"Romania","sov_a3":"ROU","adm0_dif":0,"level":2,"type":"Sovereign country","tlc":"1","admin":"Romania","adm0_a3":"ROU","geou_dif":0,"geounit":"Romania","gu_a3":"ROU","su_dif":0,"subunit":"Romania","su_a3":"ROU","brk_diff":0,"name":"Romania","name_long":"Romania","brk_a3":"ROU","brk_name":"Romania","brk_group":null,"abbrev":"Rom.","postal":"RO","formal_en":"Romania","formal_fr":null,"name_ciawf":"Romania","note_adm0":null,"note_brk":null,"name_sort":"Romania","name_alt":null,"mapcolor7":1,"mapcolor8":4,"mapcolor9":3,"mapcolor13":13,"pop_est":19356544,"pop_rank":14,"pop_year":2019,"gdp_md":250077,"gdp_year":2019,"economy":"2. Developed region: nonG7","income_grp":"3. Upper middle income","fips_10":"RO","iso_a2":"RO","iso_a2_eh":"RO","iso_a3":"ROU","iso_a3_eh":"ROU","iso_n3":"642","iso_n3_eh":"642","un_a3":"642","wb_a2":"RO","wb_a3":"ROM","woe_id":23424933,"woe_id_eh":23424933,"woe_note":"Exact WOE match as country","adm0_iso":"ROU","adm0_diff":null,"adm0_tlc":"ROU","adm0_a3_us":"ROU","adm0_a3_fr":"ROU","adm0_a3_ru":"ROU","adm0_a3_es":"ROU","adm0_a3_cn":"ROU","adm0_a3_tw":"ROU","adm0_a3_in":"ROU","adm0_a3_np":"ROU","adm0_a3_pk":"ROU","adm0_a3_de":"ROU","adm0_a3_gb":"ROU","adm0_a3_br":"ROU","adm0_a3_il":"ROU","adm0_a3_ps":"ROU","adm0_a3_sa":"ROU","adm0_a3_eg":"ROU","adm0_a3_ma":"ROU","adm0_a3_pt":"ROU","adm0_a3_ar":"ROU","adm0_a3_jp":"ROU","adm0_a3_ko":"ROU","adm0_a3_vn":"ROU","adm0_a3_tr":"ROU","adm0_a3_id":"ROU","adm0_a3_pl":"ROU","adm0_a3_gr":"ROU","adm0_a3_it":"ROU","adm0_a3_nl":"ROU","adm0_a3_se":"ROU","adm0_a3_bd":"ROU","adm0_a3_ua":"ROU","adm0_a3_un":-99,"adm0_a3_wb":-99,"continent":"Europe","region_un":"Europe","subregion":"Eastern Europe","region_wb":"Europe & Central Asia","name_len":7,"long_len":7,"abbrev_len":4,"tiny":-99,"homepart":1,"min_zoom":0,"min_label":3,"max_label":8,"label_x":24.972624,"label_y":45.733237,"ne_id":1159321199,"wikidataid":"Q218","name_ar":"رومانيا","name_bn":"রোমানিয়া","name_de":"Rumänien","name_en":"Romania","name_es":"Rumania","name_fa":"رومانی","name_fr":"Roumanie","name_el":"Ρουμανία","name_he":"רומניה","name_hi":"रोमानिया","name_hu":"Románia","name_id":"Rumania","name_it":"Romania","name_ja":"ルーマニア","name_ko":"루마니아","name_nl":"Roemenië","name_pl":"Rumunia","name_pt":"Roménia","name_ru":"Румыния","name_sv":"Rumänien","name_tr":"Romanya","name_uk":"Румунія","name_ur":"رومانیہ","name_vi":"Romania","name_zh":"罗马尼亚","name_zht":"羅馬尼亞","fclass_iso":"Admin-0 country","tlc_diff":null,"fclass_tlc":"Admin-0 country","fclass_us":null,"fclass_fr":null,"fclass_ru":null,"fclass_es":null,"fclass_cn":null,"fclass_tw":null,"fclass_in":null,"fclass_np":null,"fclass_pk":null,"fclass_de":null,"fclass_gb":null,"fclass_br":null,"fclass_il":null,"fclass_ps":null,"fclass_sa":null,"fclass_eg":null,"fclass_ma":null,"fclass_pt":null,"fclass_ar":null,"fclass_jp":null,"fclass_ko":null,"fclass_vn":null,"fclass_tr":null,"fclass_id":null,"fclass_pl":null,"fclass_gr":null,"fclass_it":null,"fclass_nl":null,"fclass_se":null,"fclass_bd":null,"fclass_ua":null,"filename":"ROU.geojson"}},{"type":"Polygon","arcs":[[14,15,16,17,-8,-13]],"properties":{"featurecla":"Admin-0 country","scalerank":1,"labelrank":5,"sovereignt":"Republic of Serbia","sov_a3":"SRB","adm0_dif":0,"level":2,"type":"Sovereign country","tlc":"1","admin":"Republic of Serbia","adm0_a3":"SRB","geou_dif":0,"geounit":"Republic of Serbia","gu_a3":"SRB","su_dif":0,"subunit":"Republic of Serbia","su_a3":"SRB","brk_diff":0,"name":"Serbia","name_long":"Serbia","brk_a3":"SRB","brk_name":"Serbia","brk_group":null,"abbrev":"Serb.","postal":"RS","formal_en":"Republic of Serbia","formal_fr":null,"name_ciawf":"Serbia","note_adm0":null,"note_brk":null,"name_sort":"Serbia","name_alt":null,"mapcolor7":3,"mapcolor8":3,"mapcolor9":2,"mapcolor13":10,"pop_est":6944975,"pop_rank":13,"pop_year":2019,"gdp_md":51475,"gdp_year":2019,"economy":"6. Developing region","income_grp":"3. Upper middle income","fips_10":"RI","iso_a2":"RS","iso_a2_eh":"RS","iso_a3":"SRB","iso_a3_eh":"SRB","iso_n3":"688","iso_n3_eh":"688","un_a3":"688","wb_a2":"YF","wb_a3":"SRB","woe_id":-90,"woe_id_eh":20069818,"woe_note":"Expired WOE also contains Kosovo.","adm0_iso":"SRB","adm0_diff":null,"adm0_tlc":"SRB","adm0_a3_us":"SRB","adm0_a3_fr":"SRB","adm0_a3_ru":"SRB","adm0_a3_es":"SRB","adm0_a3_cn":"SRB","adm0_a3_tw":"SRB","adm0_a3_in":"SRB","adm0_a3_np":"SRB","adm0_a3_pk":"SRB","adm0_a3_de":"SRB","adm0_a3_gb":"SRB","adm0_a3_br":"SRB","adm0_a3_il":"SRB","adm0_a3_ps":"SRB","adm0_a3_sa":"SRB","adm0_a3_eg":"SRB","adm0_a3_ma":"SRB","adm0_a3_pt":"SRB","adm0_a3_ar":"SRB","adm0_a3_jp":"SRB","adm0_a3_ko":"SRB","adm0_a3_vn":"SRB","adm0_a3_tr":"SRB","adm0_a3_id":"SRB","adm0_a3_pl":"SRB","adm0_a3_gr":"SRB","adm0_a3_it":"SRB","adm0_a3_nl":"SRB","adm0_a3_se":"SRB","adm0_a3_bd":"SRB","adm0_a3_ua":"SRB","adm0_a3_un":-99,"adm0_a3_wb":-99,"continent":"Europe","region_un":"Europe","subregion":"Southern Europe","region_wb":"Europe & Central Asia","name_len":6,"long_len":6,"abbrev_len":5,"tiny":-99,"homepart":1,"min_zoom":0,"min_label":4,"max_label":7,"label_x":20.787989,"label_y":44.189919,"ne_id":1159321267,"wikidataid":"Q403","name_ar":"صربيا","name_bn":"সার্বিয়া","name_de":"Serbien","name_en":"Serbia","name_es":"Serbia","name_fa":"صربستان","name_fr":"Serbie","name_el":"Σερβία","name_he":"סרביה","name_hi":"सर्बिया","name_hu":"Szerbia","name_id":"Serbia","name_it":"Serbia","name_ja":"セルビア","name_ko":"세르비아","name_nl":"Servië","name_pl":"Serbia","name_pt":"Sérvia","name_ru":"Сербия","name_sv":"Serbien","name_tr":"Sırbistan","name_uk":"Сербія","name_ur":"سربیا","name_vi":"Serbia","name_zh":"塞尔维亚","name_zht":"塞爾維亞","fclass_iso":"Admin-0 country","tlc_diff":null,"fclass_tlc":"Admin-0 country","fclass_us":null,"fclass_fr":null,"fclass_ru":null,"fclass_es":null,"fclass_cn":null,"fclass_tw":null,"fclass_in":null,"fclass_np":null,"fclass_pk":null,"fclass_de":null,"fclass_gb":null,"fclass_br":null,"fclass_il":null,"fclass_ps":null,"fclass_sa":null,"fclass_eg":null,"fclass_ma":null,"fclass_pt":null,"fclass_ar":null,"fclass_jp":null,"fclass_ko":null,"fclass_vn":null,"fclass_tr":null,"fclass_id":null,"fclass_pl":null,"fclass_gr":null,"fclass_it":null,"fclass_nl":null,"fclass_se":null,"fclass_bd":null,"fclass_ua":null,"filename":"SRB.geojson"}},{"type":"Polygon","arcs":[[18,19,20,21,-17]],"properties":{"featurecla":"Admin-0 country","scalerank":1,"labelrank":5,"sovereignt":"Bosnia and Herzegovina","sov_a3":"BIH","adm0_dif":0,"level":2,"type":"Sovereign country","tlc":"1","admin":"Bosnia and Herzegovina","adm0_a3":"BIH","geou_dif":0,"geounit":"Bosnia and Herzegovina","gu_a3":"BIH","su_dif":0,"subunit":"Bosnia and Herzegovina","su_a3":"BIH","brk_diff":0,"name":"Bosnia and Herz.","name_long":"Bosnia and Herzegovina","brk_a3":"BIH","brk_name":"Bosnia and Herz.","brk_group":null,"abbrev":"B.H.","postal":"BiH","formal_en":"Bosnia and Herzegovina","formal_fr":null,"name_ciawf":"Bosnia and Herzegovina","note_adm0":null,"note_brk":null,"name_sort":"Bosnia and Herzegovina","name_alt":null,"mapcolor7":1,"mapcolor8":1,"mapcolor9":1,"mapcolor13":2,"pop_est":3301000,"pop_rank":12,"pop_year":2019,"gdp_md":20164,"gdp_year":2019,"economy":"6. Developing region","income_grp":"3. Upper middle income","fips_10":"BK","iso_a2":"BA","iso_a2_eh":"BA","iso_a3":"BIH","iso_a3_eh":"BIH","iso_n3":"070","iso_n3_eh":"070","un_a3":"070","wb_a2":"BA","wb_a3":"BIH","woe_id":23424761,"woe_id_eh":23424761,"woe_note":"Exact WOE match as country","adm0_iso":"BIH","adm0_diff":null,"adm0_tlc":"BIH","adm0_a3_us":"BIH","adm0_a3_fr":"BIH","adm0_a3_ru":"BIH","adm0_a3_es":"BIH","adm0_a3_cn":"BIH","adm0_a3_tw":"BIH","adm0_a3_in":"BIH","adm0_a3_np":"BIH","adm0_a3_pk":"BIH","adm0_a3_de":"BIH","adm0_a3_gb":"BIH","adm0_a3_br":"BIH","adm0_a3_il":"BIH","adm0_a3_ps":"BIH","adm0_a3_sa":"BIH","adm0_a3_eg":"BIH","adm0_a3_ma":"BIH","adm0_a3_pt":"BIH","adm0_a3_ar":"BIH","adm0_a3_jp":"BIH","adm0_a3_ko":"BIH","adm0_a3_vn":"BIH","adm0_a3_tr":"BIH","adm0_a3_id":"BIH","adm0_a3_pl":"BIH","adm0_a3_gr":"BIH","adm0_a3_it":"BIH","adm0_a3_nl":"BIH","adm0_a3_se":"BIH","adm0_a3_bd":"BIH","adm0_a3_ua":"BIH","adm0_a3_un":-99,"adm0_a3_wb":-99,"continent":"Europe","region_un":"Europe","subregion":"Southern Europe","region_wb":"Europe & Central Asia","name_len":16,"long_len":22,"abbrev_len":4,"tiny":-99,"homepart":1,"min_zoom":0,"min_label":4.5,"max_label":6.8,"label_x":18.06841,"label_y":44.091051,"ne_id":1159320417,"wikidataid":"Q225","name_ar":"البوسنة والهرسك","name_bn":"বসনিয়া ও হার্জেগোভিনা","name_de":"Bosnien und Herzegowina","name_en":"Bosnia and Herzegovina","name_es":"Bosnia y Herzegovina","name_fa":"بوسنی و هرزگوین","name_fr":"Bosnie-Herzégovine","name_el":"Βοσνία και Ερζεγοβίνη","name_he":"בוסניה והרצגובינה","name_hi":"बॉस्निया और हर्ज़ेगोविना","name_hu":"Bosznia-Hercegovina","name_id":"Bosnia dan Herzegovina","name_it":"Bosnia ed Erzegovina","name_ja":"ボスニア・ヘルツェゴビナ","name_ko":"보스니아 헤르체고비나","name_nl":"Bosnië en Herzegovina","name_pl":"Bośnia i Hercegowina","name_pt":"Bósnia e Herzegovina","name_ru":"Босния и Герцеговина","name_sv":"Bosnien och Hercegovina","name_tr":"Bosna-Hersek","name_uk":"Боснія і Герцеговина","name_ur":"بوسنیا و ہرزیگووینا","name_vi":"Bosna và Hercegovina","name_zh":"波斯尼亚和黑塞哥维那","name_zht":"波士尼亞與赫塞哥維納","fclass_iso":"Admin-0 country","tlc_diff":null,"fclass_tlc":"Admin-0 country","fclass_us":null,"fclass_fr":null,"fclass_ru":null,"fclass_es":null,"fclass_cn":null,"fclass_tw":null,"fclass_in":null,"fclass_np":null,"fclass_pk":null,"fclass_de":null,"fclass_gb":null,"fclass_br":null,"fclass_il":null,"fclass_ps":null,"fclass_sa":null,"fclass_eg":null,"fclass_ma":null,"fclass_pt":null,"fclass_ar":null,"fclass_jp":null,"fclass_ko":null,"fclass_vn":null,"fclass_tr":null,"fclass_id":null,"fclass_pl":null,"fclass_gr":null,"fclass_it":null,"fclass_nl":null,"fclass_se":null,"fclass_bd":null,"fclass_ua":null,"filename":"BIH.geojson"}},{"type":"MultiPolygon","arcs":[[[22,-9,-18,-22,23]],[[24]],[[25]],[[26]],[[27]],[[28]],[[29]],[[30]],[[31]],[[32]],[[33]],[[34]],[[35,-20]]],"properties":{"featurecla":"Admin-0 country","scalerank":1,"labelrank":6,"sovereignt":"Croatia","sov_a3":"HRV","adm0_dif":0,"level":2,"type":"Sovereign country","tlc":"1","admin":"Croatia","adm0_a3":"HRV","geou_dif":0,"geounit":"Croatia","gu_a3":"HRV","su_dif":0,"subunit":"Croatia","su_a3":"HRV","brk_diff":0,"name":"Croatia","name_long":"Croatia","brk_a3":"HRV","brk_name":"Croatia","brk_group":null,"abbrev":"Cro.","postal":"HR","formal_en":"Republic of Croatia","formal_fr":null,"name_ciawf":"Croatia","note_adm0":null,"note_brk":null,"name_sort":"Croatia","name_alt":null,"mapcolor7":5,"mapcolor8":4,"mapcolor9":5,"mapcolor13":1,"pop_est":4067500,"pop_rank":12,"pop_year":2019,"gdp_md":60752,"gdp_year":2019,"economy":"2. Developed region: nonG7","income_grp":"2. High income: nonOECD","fips_10":"HR","iso_a2":"HR","iso_a2_eh":"HR","iso_a3":"HRV","iso_a3_eh":"HRV","iso_n3":"191","iso_n3_eh":"191","un_a3":"191","wb_a2":"HR","wb_a3":"HRV","woe_id":23424843,"woe_id_eh":23424843,"woe_note":"Exact WOE match as country","adm0_iso":"HRV","adm0_diff":null,"adm0_tlc":"HRV","adm0_a3_us":"HRV","adm0_a3_fr":"HRV","adm0_a3_ru":"HRV","adm0_a3_es":"HRV","adm0_a3_cn":"HRV","adm0_a3_tw":"HRV","adm0_a3_in":"HRV","adm0_a3_np":"HRV","adm0_a3_pk":"HRV","adm0_a3_de":"HRV","adm0_a3_gb":"HRV","adm0_a3_br":"HRV","adm0_a3_il":"HRV","adm0_a3_ps":"HRV","adm0_a3_sa":"HRV","adm0_a3_eg":"HRV","adm0_a3_ma":"HRV","adm0_a3_pt":"HRV","adm0_a3_ar":"HRV","adm0_a3_jp":"HRV","adm0_a3_ko":"HRV","adm0_a3_vn":"HRV","adm0_a3_tr":"HRV","adm0_a3_id":"HRV","adm0_a3_pl":"HRV","adm0_a3_gr":"HRV","adm0_a3_it":"HRV","adm0_a3_nl":"HRV","adm0_a3_se":"HRV","adm0_a3_bd":"HRV","adm0_a3_ua":"HRV","adm0_a3_un":-99,"adm0_a3_wb":-99,"continent":"Europe","region_un":"Europe","subregion":"Southern Europe","region_wb":"Europe & Central Asia","name_len":7,"long_len":7,"abbrev_len":4,"tiny":-99,"homepart":1,"min_zoom":0,"min_label":4,"max_label":9,"label_x":16.37241,"label_y":45.805799,"ne_id":1159320833,"wikidataid":"Q224","name_ar":"كرواتيا","name_bn":"ক্রোয়েশিয়া","name_de":"Kroatien","name_en":"Croatia","name_es":"Croacia","name_fa":"کرواسی","name_fr":"Croatie","name_el":"Κροατία","name_he":"קרואטיה","name_hi":"क्रोएशिया","name_hu":"Horvátország","name_id":"Kroasia","name_it":"Croazia","name_ja":"クロアチア","name_ko":"크로아티아","name_nl":"Kroatië","name_pl":"Chorwacja","name_pt":"Croácia","name_ru":"Хорватия","name_sv":"Kroatien","name_tr":"Hırvatistan","name_uk":"Хорватія","name_ur":"کروشیا","name_vi":"Croatia","name_zh":"克罗地亚","name_zht":"克羅地亞","fclass_iso":"Admin-0 country","tlc_diff":null,"fclass_tlc":"Admin-0 country","fclass_us":null,"fclass_fr":null,"fclass_ru":null,"fclass_es":null,"fclass_cn":null,"fclass_tw":null,"fclass_in":null,"fclass_np":null,"fclass_pk":null,"fclass_de":null,"fclass_gb":null,"fclass_br":null,"fclass_il":null,"fclass_ps":null,"fclass_sa":null,"fclass_eg":null,"fclass_ma":null,"fclass_pt":null,"fclass_ar":null,"fclass_jp":null,"fclass_ko":null,"fclass_vn":null,"fclass_tr":null,"fclass_id":null,"fclass_pl":null,"fclass_gr":null,"fclass_it":null,"fclass_nl":null,"fclass_se":null,"fclass_bd":null,"fclass_ua":null,"filename":"HRV.geojson"}},{"type":"Polygon","arcs":[[-23,36,-10]],"properties":{"featurecla":"Admin-0 country","scalerank":1,"labelrank":6,"sovereignt":"Slovenia","sov_a3":"SVN","adm0_dif":0,"level":2,"type":"Sovereign country","tlc":"1","admin":"Slovenia","adm0_a3":"SVN","geou_dif":0,"geounit":"Slovenia","gu_a3":"SVN","su_dif":0,"subunit":"Slovenia","su_a3":"SVN","brk_diff":0,"name":"Slovenia","name_long":"Slovenia","brk_a3":"SVN","brk_name":"Slovenia","brk_group":null,"abbrev":"Slo.","postal":"SLO","formal_en":"Republic of Slovenia","formal_fr":null,"name_ciawf":"Slovenia","note_adm0":null,"note_brk":null,"name_sort":"Slovenia","name_alt":null,"mapcolor7":2,"mapcolor8":3,"mapcolor9":2,"mapcolor13":12,"pop_est":2087946,"pop_rank":12,"pop_year":2019,"gdp_md":54174,"gdp_year":2019,"economy":"2. Developed region: nonG7","income_grp":"1. High income: OECD","fips_10":"SI","iso_a2":"SI","iso_a2_eh":"SI","iso_a3":"SVN","iso_a3_eh":"SVN","iso_n3":"705","iso_n3_eh":"705","un_a3":"705","wb_a2":"SI","wb_a3":"SVN","woe_id":23424945,"woe_id_eh":23424945,"woe_note":"Exact WOE match as country","adm0_iso":"SVN","adm0_diff":null,"adm0_tlc":"SVN","adm0_a3_us":"SVN","adm0_a3_fr":"SVN","adm0_a3_ru":"SVN","adm0_a3_es":"SVN","adm0_a3_cn":"SVN","adm0_a3_tw":"SVN","adm0_a3_in":"SVN","adm0_a3_np":"SVN","adm0_a3_pk":"SVN","adm0_a3_de":"SVN","adm0_a3_gb":"SVN","adm0_a3_br":"SVN","adm0_a3_il":"SVN","adm0_a3_ps":"SVN","adm0_a3_sa":"SVN","adm0_a3_eg":"SVN","adm0_a3_ma":"SVN","adm0_a3_pt":"SVN","adm0_a3_ar":"SVN","adm0_a3_jp":"SVN","adm0_a3_ko":"SVN","adm0_a3_vn":"SVN","adm0_a3_tr":"SVN","adm0_a3_id":"SVN","adm0_a3_pl":"SVN","adm0_a3_gr":"SVN","adm0_a3_it":"SVN","adm0_a3_nl":"SVN","adm0_a3_se":"SVN","adm0_a3_bd":"SVN","adm0_a3_ua":"SVN","adm0_a3_un":-99,"adm0_a3_wb":-99,"continent":"Europe","region_un":"Europe","subregion":"Southern Europe","region_wb":"Europe & Central Asia","name_len":8,"long_len":8,"abbrev_len":4,"tiny":-99,"homepart":1,"min_zoom":0,"min_label":5,"max_label":10,"label_x":14.915312,"label_y":46.06076,"ne_id":1159321285,"wikidataid":"Q215","name_ar":"سلوفينيا","name_bn":"স্লোভেনিয়া","name_de":"Slowenien","name_en":"Slovenia","name_es":"Eslovenia","name_fa":"اسلوونی","name_fr":"Slovénie","name_el":"Σλοβενία","name_he":"סלובניה","name_hi":"स्लोवेनिया","name_hu":"Szlovénia","name_id":"Slovenia","name_it":"Slovenia","name_ja":"スロベニア","name_ko":"슬로베니아","name_nl":"Slovenië","name_pl":"Słowenia","name_pt":"Eslovénia","name_ru":"Словения","name_sv":"Slovenien","name_tr":"Slovenya","name_uk":"Словенія","name_ur":"سلووینیا","name_vi":"Slovenia","name_zh":"斯洛文尼亚","name_zht":"斯洛維尼亞","fclass_iso":"Admin-0 country","tlc_diff":null,"fclass_tlc":"Admin-0 country","fclass_us":null,"fclass_fr":null,"fclass_ru":null,"fclass_es":null,"fclass_cn":null,"fclass_tw":null,"fclass_in":null,"fclass_np":null,"fclass_pk":null,"fclass_de":null,"fclass_gb":null,"fclass_br":null,"fclass_il":null,"fclass_ps":null,"fclass_sa":null,"fclass_eg":null,"fclass_ma":null,"fclass_pt":null,"fclass_ar":null,"fclass_jp":null,"fclass_ko":null,"fclass_vn":null,"fclass_tr":null,"fclass_id":null,"fclass_pl":null,"fclass_gr":null,"fclass_it":null,"fclass_nl":null,"fclass_se":null,"fclass_bd":null,"fclass_ua":null,"filename":"SVN.geojson"}},{"type":"Polygon","arcs":[[-15,-12,37]],"properties":{"featurecla":"Admin-0 country","scalerank":1,"labelrank":4,"sovereignt":"Bulgaria","sov_a3":"BGR","adm0_dif":0,"level":2,"type":"Sovereign country","tlc":"1","admin":"Bulgaria","adm0_a3":"BGR","geou_dif":0,"geounit":"Bulgaria","gu_a3":"BGR","su_dif":0,"subunit":"Bulgaria","su_a3":"BGR","brk_diff":0,"name":"Bulgaria","name_long":"Bulgaria","brk_a3":"BGR","brk_name":"Bulgaria","brk_group":null,"abbrev":"Bulg.","postal":"BG","formal_en":"Republic of Bulgaria","formal_fr":null,"name_ciawf":"Bulgaria","note_adm0":null,"note_brk":null,"name_sort":"Bulgaria","name_alt":null,"mapcolor7":4,"mapcolor8":5,"mapcolor9":1,"mapcolor13":8,"pop_est":6975761,"pop_rank":13,"pop_year":2019,"gdp_md":68558,"gdp_year":2019,"economy":"2. Developed region: nonG7","income_grp":"3. Upper middle income","fips_10":"BU","iso_a2":"BG","iso_a2_eh":"BG","iso_a3":"BGR","iso_a3_eh":"BGR","iso_n3":"100","iso_n3_eh":"100","un_a3":"100","wb_a2":"BG","wb_a3":"BGR","woe_id":23424771,"woe_id_eh":23424771,"woe_note":"Exact WOE match as country","adm0_iso":"BGR","adm0_diff":null,"adm0_tlc":"BGR","adm0_a3_us":"BGR","adm0_a3_fr":"BGR","adm0_a3_ru":"BGR","adm0_a3_es":"BGR","adm0_a3_cn":"BGR","adm0_a3_tw":"BGR","adm0_a3_in":"BGR","adm0_a3_np":"BGR","adm0_a3_pk":"BGR","adm0_a3_de":"BGR","adm0_a3_gb":"BGR","adm0_a3_br":"BGR","adm0_a3_il":"BGR","adm0_a3_ps":"BGR","adm0_a3_sa":"BGR","adm0_a3_eg":"BGR","adm0_a3_ma":"BGR","adm0_a3_pt":"BGR","adm0_a3_ar":"BGR","adm0_a3_jp":"BGR","adm0_a3_ko":"BGR","adm0_a3_vn":"BGR","adm0_a3_tr":"BGR","adm0_a3_id":"BGR","adm0_a3_pl":"BGR","adm0_a3_gr":"BGR","adm0_a3_it":"BGR","adm0_a3_nl":"BGR","adm0_a3_se":"BGR","adm0_a3_bd":"BGR","adm0_a3_ua":"BGR","adm0_a3_un":-99,"adm0_a3_wb":-99,"continent":"Europe","region_un":"Europe","subregion":"Eastern Europe","region_wb":"Europe & Central Asia","name_len":8,"long_len":8,"abbrev_len":5,"tiny":-99,"homepart":1,"min_zoom":0,"min_label":4,"max_label":9,"label_x":25.15709,"label_y":42.508785,"ne_id":1159320409,"wikidataid":"Q219","name_ar":"بلغاريا","name_bn":"বুলগেরিয়া","name_de":"Bulgarien","name_en":"Bulgaria","name_es":"Bulgaria","name_fa":"بلغارستان","name_fr":"Bulgarie","name_el":"Βουλγαρία","name_he":"בולגריה","name_hi":"बुल्गारिया","name_hu":"Bulgária","name_id":"Bulgaria","name_it":"Bulgaria","name_ja":"ブルガリア","name_ko":"불가리아","name_nl":"Bulgarije","name_pl":"Bułgaria","name_pt":"Bulgária","name_ru":"Болгария","name_sv":"Bulgarien","name_tr":"Bulgaristan","name_uk":"Болгарія","name_ur":"بلغاریہ","name_vi":"Bulgaria","name_zh":"保加利亚","name_zht":"保加利亞","fclass_iso":"Admin-0 country","tlc_diff":null,"fclass_tlc":"Admin-0 country","fclass_us":null,"fclass_fr":null,"fclass_ru":null,"fclass_es":null,"fclass_cn":null,"fclass_tw":null,"fclass_in":null,"fclass_np":null,"fclass_pk":null,"fclass_de":null,"fclass_gb":null,"fclass_br":null,"fclass_il":null,"fclass_ps":null,"fclass_sa":null,"fclass_eg":null,"fclass_ma":null,"fclass_pt":null,"fclass_ar":null,"fclass_jp":null,"fclass_ko":null,"fclass_vn":null,"fclass_tr":null,"fclass_id":null,"fclass_pl":null,"fclass_gr":null,"fclass_it":null,"fclass_nl":null,"fclass_se":null,"fclass_bd":null,"fclass_ua":null,"filename":"BGR.geojson"}}]}},"arcs":[[[18.83222656250001,49.510791015624996],[18.807031250000023,49.509228515625],[18.74970703125001,49.493994140625],[18.676171875000023,49.4884765625],[18.596484375000017,49.491455078125],[18.534570312500023,49.464697265625],[18.47607421875,49.42109375],[18.415820312500017,49.390917968749996],[18.383105468750017,49.363916015624994],[18.36484375,49.336230468749996],[18.160937500000017,49.257373046874996],[18.132617187500017,49.224560546875],[18.109960937500006,49.17978515625],[18.100390625000017,49.1193359375],[18.0859375,49.06513671875],[18.050878906250006,49.036523437499994],[17.940722656250017,49.011962890625],[17.91328125000001,48.99873046875],[17.892675781250006,48.971142578125],[17.830859375000017,48.928613281249994],[17.75849609375001,48.888134765625],[17.625390625000023,48.841845703124996],[17.48261718750001,48.827783203124994],[17.296875,48.842822265624996],[17.1884765625,48.8609375],[17.135644531250023,48.841064453125],[17.063281250000017,48.78076171875],[16.985253906250023,48.676904296874994],[16.953125,48.598828125]],[[16.953125,48.598828125],[16.928320312500006,48.620898437499996],[16.883691406250023,48.7037109375],[16.83320312500001,48.714306640625],[16.764453125000017,48.722021484375],[16.712695312500017,48.734228515625],[16.600976562500023,48.781884765624994],[16.543554687500006,48.796240234375],[16.477929687500023,48.800097656249996],[16.414843750000017,48.7720703125],[16.367285156250006,48.73896484375],[16.219335937500006,48.739404296874994],[16.057226562500006,48.754785156249994],[15.8251953125,48.864453125],[15.765039062500023,48.8654296875],[15.70078125,48.86044921875],[15.599414062500017,48.886376953124994],[15.402929687500006,48.957373046875],[15.310937500000023,48.974023437499994],[15.252734375000017,48.9638671875],[15.199609375000023,48.948144531249994],[15.16171875,48.9462890625],[15.139746093750006,48.9693359375],[15.066796875000023,48.997851562499996],[14.993457031250017,49.001123046874994],[14.97216796875,48.983935546874996],[14.947363281250006,48.827734375],[14.922558593750011,48.771386718749994],[14.821875,48.7740234375],[14.785937500000017,48.747363281249996],[14.706640625,48.671923828124996],[14.691308593750023,48.59921875],[14.553906250000011,48.613330078124996],[14.488671875000023,48.625537109374996],[14.431054687500023,48.616259765624996],[14.367578125000023,48.576220703124996],[14.189843750000023,48.578564453125],[14.049121093750017,48.602490234375],[13.98876953125,48.692431640624996],[13.92431640625,48.72802734375],[13.843164062500023,48.75986328125],[13.814746093750017,48.766943359375],[13.769921875000023,48.815966796874996],[13.684960937500023,48.876708984375],[13.547656250000017,48.95966796875],[13.440722656250017,48.95556640625],[13.401171875000017,48.977587890624996],[13.383691406250023,49.008105468749996],[13.339062500000011,49.060791015625],[13.288769531250011,49.097460937499996],[13.227832031250017,49.111669921875],[13.140527343750023,49.158349609374994],[13.023730468750017,49.260107421875],[12.916699218750011,49.33046875],[12.813378906250023,49.329345703125],[12.747851562500017,49.3662109375],[12.68115234375,49.414501953125],[12.632031250000011,49.461230468749996],[12.555761718750006,49.574853515624994],[12.500292968750017,49.639697265624996],[12.45703125,49.67978515625],[12.408203125,49.713183593749996],[12.390527343750023,49.739648437499994],[12.4501953125,49.800146484375],[12.471875,49.830078125],[12.49755859375,49.853076171874996],[12.5125,49.87744140625],[12.512011718750017,49.895800781249996],[12.457617187500006,49.955517578125],[12.384179687500023,49.998583984374996],[12.276464843750006,50.042333984375],[12.207812500000017,50.097509765625],[12.182519531250023,50.148046875],[12.175,50.175830078124996],[12.127832031250023,50.213427734374996],[12.089746093750023,50.2685546875],[12.08984375,50.3017578125],[12.09921875,50.310986328125],[12.134863281250006,50.3109375],[12.1748046875,50.288378906249996],[12.231152343750011,50.244873046875],[12.27734375,50.181445312499996],[12.3056640625,50.205712890624994],[12.358593750000011,50.273242187499996],[12.45263671875,50.3498046875],[12.549023437500011,50.393408203125],[12.635546875000017,50.3970703125],[12.706445312500023,50.409130859375],[12.765429687500017,50.430957031249996],[12.868261718750006,50.422216796875],[12.942675781250017,50.4064453125],[12.966796875,50.4162109375],[12.9970703125,50.4560546875],[13.016406250000017,50.490380859374994],[13.18115234375,50.510498046875],[13.237695312500023,50.5767578125],[13.26953125,50.576416015625],[13.306054687500023,50.586328125],[13.341015625000011,50.61142578125],[13.374609375,50.621728515624994],[13.401171875000017,50.609326171875],[13.436132812500006,50.60107421875],[13.472558593750023,50.616943359375],[13.526562500000011,50.692822265625],[13.556738281250006,50.704638671874996],[13.701367187500011,50.71650390625],[13.898535156250006,50.761279296874996],[13.998437500000023,50.801123046875],[14.096484375000017,50.82275390625],[14.201757812500006,50.861230468749994],[14.369042968750023,50.898730468749996],[14.377050781250006,50.9140625],[14.299414062500006,50.952587890625],[14.273339843750023,50.976904296875],[14.255859375,51.001855468749994],[14.283203125,51.0294921875],[14.319726562500023,51.03779296875],[14.367285156250006,51.026269531249994],[14.50732421875,51.00986328125],[14.545703125000017,50.993945312499996],[14.559667968750006,50.954931640625],[14.59521484375,50.918603515624994],[14.623828125000017,50.91474609375],[14.613574218750017,50.85556640625],[14.658203125,50.8326171875],[14.723339843750011,50.814697265625],[14.766503906250023,50.818310546875],[14.797460937500006,50.842333984374996],[14.809375,50.858984375],[14.895800781250017,50.861376953124996],[14.98291015625,50.886572265625],[14.989941406250011,50.92724609375],[14.984472656250006,51.00341796875],[14.99375,51.01435546875],[15.1259765625,50.99287109375],[15.258593750000017,50.958544921874996],[15.277050781250011,50.8830078125],[15.312597656250006,50.845751953124996],[15.354394531250023,50.811767578125],[15.394628906250006,50.796289062499994],[15.463964843750006,50.793847656249994],[15.643945312500023,50.748876953125],[15.730566406250006,50.739697265625],[15.819238281250023,50.70869140625],[15.893945312500023,50.676904296874994],[15.948535156250017,50.670263671875],[15.973828125000011,50.63544921875],[16.007226562500023,50.611621093749996],[16.06640625,50.629931640624996],[16.2822265625,50.655615234375],[16.359960937500006,50.621386718749996],[16.4125,50.58515625],[16.419726562500017,50.573632812499994],[16.39228515625001,50.541650390624994],[16.37910156250001,50.516894531249996],[16.35664062500001,50.50048828125],[16.282519531250017,50.4830078125],[16.24072265625,50.4546875],[16.210351562500023,50.423730468749994],[16.230761718750017,50.394091796874996],[16.291308593750017,50.371875],[16.33417968750001,50.36689453125],[16.350488281250023,50.34521484375],[16.487597656250017,50.248388671875],[16.5966796875,50.121923828125],[16.63916015625,50.1021484375],[16.679101562500023,50.097460937499996],[16.72529296875001,50.116064453125],[16.778613281250017,50.15703125],[16.841796875,50.18671875],[16.895312500000017,50.201953125],[16.989648437500023,50.2369140625],[16.99335937500001,50.259716796875],[16.91474609375001,50.34521484375],[16.869140625,50.414501953125],[16.88007812500001,50.427050781249996],[16.980761718750017,50.41611328125],[17.151953125,50.378320312499994],[17.41523437500001,50.254785156249994],[17.462304687500023,50.254785156249994],[17.554589843750023,50.2640625],[17.654687500000023,50.284228515624996],[17.702246093750006,50.307177734374996],[17.720117187500023,50.298632812499996],[17.735449218750006,50.230761718749996],[17.709277343750017,50.1935546875],[17.58935546875,50.157470703125],[17.596289062500006,50.139501953125],[17.627050781250006,50.11640625],[17.681054687500023,50.10078125],[17.74658203125,50.056787109374994],[17.79169921875001,50.006591796875],[17.83125,49.983300781249994],[17.874804687500017,49.972265625],[17.983789062500023,49.999072265624996],[18.0146484375,50.020263671875],[18.0283203125,50.03525390625],[18.04951171875001,50.03193359375],[18.087695312500017,50.007275390625],[18.09921875,49.9927734375],[18.20527343750001,49.964746093749994],[18.26630859375001,49.9302734375],[18.305273437500006,49.9140625],[18.348437500000017,49.929833984374994],[18.516210937500006,49.902392578124996],[18.562402343750023,49.879345703125],[18.5771484375,49.841113281249996],[18.56884765625,49.817919921874996],[18.594628906250023,49.7578125],[18.806933593750017,49.613720703125],[18.82929687500001,49.54013671875],[18.83222656250001,49.510791015624996]],[[22.1318359375,48.405322265624996],[22.111328125,48.393359375],[21.766992187500023,48.3380859375],[21.721484375000017,48.346582031249994],[21.674609375000017,48.378369140625],[21.64863281250001,48.40146484375],[21.63251953125001,48.418505859374996],[21.602636718750006,48.463671875],[21.56318359375001,48.495703125],[21.504687500000017,48.521875],[21.45136718750001,48.55224609375],[21.382421875,48.553466796875],[21.196386718750006,48.510595703125],[21.067285156250023,48.505908203124996],[20.98115234375001,48.519677734374994],[20.866601562500023,48.545654296875],[20.643164062500006,48.549707031249994],[20.490039062500017,48.526904296874996],[20.475,48.4951171875],[20.333789062500017,48.295556640624994],[20.12861328125001,48.222021484375],[19.95039062500001,48.146630859374994],[19.89863281250001,48.13134765625],[19.81005859375,48.155029296875],[19.70917968750001,48.1998046875],[19.625390625000023,48.223095703125],[19.564257812500017,48.212841796875],[19.497460937500023,48.162109375],[19.46699218750001,48.110693359375],[19.26513671875,48.073046875],[18.914160156250006,48.050830078124996],[18.791894531250023,48.000292968749996],[18.750097656250006,47.939453125],[18.748339843750017,47.89267578125],[18.77802734375001,47.852880859375],[18.740625,47.806494140625],[18.72421875,47.787158203124996],[18.47626953125001,47.777001953124994],[18.145605468750006,47.763427734375],[17.94794921875001,47.766894531249996],[17.76191406250001,47.770166015624994],[17.63525390625,47.809912109375],[17.48066406250001,47.887597656249994],[17.317285156250023,47.99091796875],[17.301562500000017,47.993359375],[17.277246093750023,48.004345703125],[17.174609375000017,48.012060546875],[17.147363281250023,48.00595703125]],[[17.147363281250023,48.00595703125],[17.0859375,48.03955078125],[17.06787109375,48.083251953125],[16.97265625,48.198095703125],[16.86542968750001,48.3869140625],[16.862695312500023,48.44140625],[16.90449218750001,48.503515625],[16.943359375,48.550927734374994],[16.948828125,48.58857421875],[16.953125,48.598828125]],[[18.83222656250001,49.510791015624996],[18.93818359375001,49.498291015625],[18.95722656250001,49.448291015624996],[18.968359375,49.396240234375],[19.1494140625,49.4],[19.25019531250001,49.51142578125],[19.30234375,49.524853515625],[19.38623046875,49.563623046874994],[19.44160156250001,49.597705078124996],[19.47968750000001,49.5763671875],[19.534765625,49.504785156249994],[19.593066406250017,49.447119140625],[19.62666015625001,49.424365234374996],[19.630273437500023,49.406640625],[19.664160156250006,49.396044921874996],[19.730078125,49.389599609375],[19.77392578125,49.37216796875],[19.787011718750023,49.3185546875],[19.787988281250023,49.269970703125],[19.767382812500017,49.235205078125],[19.756640625000017,49.204394531249996],[19.80224609375,49.192333984375],[19.868945312500017,49.204003906249994],[19.916113281250006,49.22138671875],[20.0576171875,49.181298828124994],[20.10761718750001,49.270751953125],[20.163671875,49.31640625],[20.23652343750001,49.337646484375],[20.302539062500017,49.365527343749996],[20.36298828125001,49.38525390625],[20.404687500000023,49.384082031249996],[20.422656250000017,49.392333984375],[20.474511718750023,49.390185546874996],[20.534570312500023,49.381201171875],[20.616113281250023,49.39169921875],[20.72900390625,49.369921875],[20.79951171875001,49.328662109374996],[20.868457031250017,49.314697265625],[20.947265625,49.31708984375],[21.00117187500001,49.33984375],[21.079394531250017,49.418261718749996],[21.136132812500023,49.417041015624996],[21.225,49.429443359375],[21.350488281250023,49.428759765624996],[21.6396484375,49.411962890625],[21.71210937500001,49.38193359375],[21.89013671875,49.34345703125],[21.967675781250023,49.299072265625],[22.00214843750001,49.24609375],[22.020117187500006,49.209521484374996],[22.202539062500023,49.153222656249994],[22.473046875000023,49.081298828125],[22.538671875,49.072705078125],[22.52412109375001,49.031396484374994],[22.483203125000017,48.983251953125],[22.432031250000023,48.933544921875],[22.389453125000017,48.873486328125],[22.332617187500006,48.745068359375],[22.295214843750017,48.685839843749996],[22.142871093750017,48.568505859374994],[22.1318359375,48.405322265624996]],[[22.1318359375,48.405322265624996],[22.227148437500006,48.413427734375],[22.23115234375001,48.412158203124996],[22.253710937500017,48.407373046874994],[22.269433593750023,48.360888671874996],[22.27216796875001,48.3580078125],[22.29511718750001,48.327294921874994],[22.316699218750017,48.28662109375],[22.350195312500006,48.2560546875],[22.423828125,48.243310546874994],[22.520117187500006,48.205371093749996],[22.582421875000023,48.134033203125],[22.676367187500006,48.104394531249994],[22.68310546875,48.10361328125],[22.701562500000023,48.10703125],[22.769140625,48.109619140625],[22.7822265625,48.09521484375],[22.836230468750017,48.060302734375],[22.857226562500017,48.029541015625],[22.846484375000017,47.9970703125],[22.856054687500006,47.960302734375],[22.87666015625001,47.947265625]],[[22.87666015625001,47.947265625],[22.85175781250001,47.92255859375],[22.6767578125,47.7990234375],[22.6083984375,47.76630859375],[22.562890625000023,47.759570312499996],[22.49140625000001,47.77255859375],[22.41748046875,47.762646484375],[22.351464843750023,47.736230468749994],[22.290625,47.727832031249996],[22.24462890625,47.69638671875],[22.18505859375,47.629052734374994],[22.111914062500006,47.572021484375],[22.037988281250023,47.53662109375],[21.99970703125001,47.505029296874994],[21.99531250000001,47.395703125],[21.95429687500001,47.3642578125],[21.899218750000017,47.332568359374996],[21.86933593750001,47.304589843749994],[21.785449218750017,47.138134765625],[21.721777343750006,47.084814453125],[21.661425781250017,47.043896484375],[21.651464843750006,47.00654296875],[21.652636718750017,46.963769531249994],[21.58417968750001,46.878369140625],[21.494433593750017,46.78974609375],[21.47705078125,46.753369140625],[21.4970703125,46.704296875],[21.411035156250023,46.647851562499994],[21.361328125,46.620751953124994],[21.320214843750023,46.6078125],[21.29453125,46.5724609375],[21.252246093750017,46.486376953124996],[21.26328125,46.44775390625],[21.264550781250023,46.4123046875],[21.191796875000023,46.391552734375],[21.17041015625,46.352685546874994],[21.151953125,46.304345703124994],[21.121679687500006,46.282421875],[21.039843750000017,46.242236328124996],[20.837011718750006,46.259716796875],[20.76025390625,46.246240234374994],[20.737402343750006,46.21748046875],[20.732714843750017,46.19443359375],[20.707421875000023,46.172802734375],[20.661035156250023,46.145654296874994],[20.613671875000023,46.13349609375],[20.508105468750017,46.166943359375],[20.28095703125001,46.1330078125],[20.241796875,46.10859375]],[[20.241796875,46.10859375],[20.21015625000001,46.126025390624996],[20.161425781250017,46.141894531249996],[19.93408203125,46.161474609375],[19.84443359375001,46.145898437499994],[19.724511718750023,46.151904296874996],[19.61347656250001,46.169189453125],[19.53076171875,46.155175781249994],[19.45751953125,46.087353515625],[19.421289062500023,46.064453125],[19.392871093750017,46.0498046875],[19.33027343750001,46.028515625],[19.278125,46.002880859375],[19.208398437500023,45.984423828124996],[19.146289062500017,45.98701171875],[19.087304687500023,46.016162109374996],[19.066210937500017,46.009521484375],[19.047656250000017,45.982666015625],[19.015722656250006,45.959716796875],[18.927832031250006,45.931396484375],[18.905371093750006,45.93173828125]],[[18.905371093750006,45.93173828125],[18.900292968750023,45.93173828125],[18.8330078125,45.91083984375],[18.721777343750006,45.899365234375],[18.666015625,45.907470703125],[18.56464843750001,45.81328125],[18.533593750000023,45.796142578125],[18.437304687500017,45.767333984375],[18.358300781250023,45.75302734375],[18.290625,45.764453125],[18.263964843750017,45.765478515625],[17.9638671875,45.770263671875],[17.80712890625,45.790429687499994],[17.706445312500023,45.82724609375],[17.6396484375,45.868359375],[17.60703125,45.91376953125],[17.529199218750023,45.941308593749994],[17.406347656250006,45.951074218749994],[17.310644531250006,45.996142578124996],[17.2421875,46.076611328125],[17.14960937500001,46.14033203125],[17.03271484375,46.187304687499996],[16.93994140625,46.253662109375],[16.871484375000023,46.339306640625],[16.748046875,46.41640625],[16.569921875,46.485009765624994],[16.516210937500006,46.499902343749994]],[[16.516210937500006,46.499902343749994],[16.505664062500017,46.5220703125],[16.41845703125,46.607226562499996],[16.38125,46.638671875],[16.384570312500017,46.680810546874994],[16.3671875,46.70478515625],[16.33544921875,46.721630859375],[16.318457031250006,46.782519531249996],[16.308496093750023,46.827978515625],[16.283593750000023,46.857275390625],[16.093066406250017,46.86328125]],[[16.093066406250017,46.86328125],[16.252539062500006,46.971923828125],[16.331835937500017,47.002197265625],[16.423925781250006,46.996972656249994],[16.453417968750017,47.006787109375],[16.461230468750017,47.0224609375],[16.476953125000023,47.057861328125],[16.484765625000023,47.091259765625],[16.49267578125,47.12265625],[16.482812500000023,47.140380859375],[16.438378906250023,47.145898437499994],[16.416894531250023,47.2234375],[16.439746093750017,47.252734375],[16.46259765625001,47.27314453125],[16.434375,47.367431640625],[16.44287109375,47.39951171875],[16.514746093750006,47.404541015625],[16.57441406250001,47.424658203125],[16.623046875,47.447558593749996],[16.636621093750023,47.476611328124996],[16.676562500000017,47.536035156249994],[16.639746093750006,47.60888671875],[16.43212890625,47.656298828124996],[16.421289062500023,47.674462890624994],[16.469628906250023,47.695068359375],[16.52109375,47.724462890625],[16.55097656250001,47.747363281249996],[16.590917968750006,47.750537109374996],[16.6474609375,47.739013671875],[16.74755859375,47.686279296875],[16.785937500000017,47.678662109375],[16.823046875000017,47.693994140624994],[16.862695312500023,47.697265625],[16.973437500000017,47.6953125],[17.06660156250001,47.707568359374996],[17.04560546875001,47.76376953125],[17.0458984375,47.804541015625],[17.030078125000017,47.837109375],[17.039941406250023,47.872949218749994],[17.077734375,47.90087890625],[17.08906250000001,47.963623046875],[17.147363281250023,48.00595703125]],[[28.585351562500023,43.742236328124996],[28.4234375,43.740478515625],[28.37519531250001,43.744775390624994],[28.221972656250017,43.772851562499994],[28.05,43.822412109374994],[27.94892578125001,43.918603515624994],[27.88427734375,43.987353515624996],[27.738574218750017,43.956298828125],[27.710742187500017,43.964599609375],[27.6708984375,43.997802734375],[27.56103515625,44.020068359374996],[27.425390625,44.0205078125],[27.120703125,44.146142578124994],[27.0869140625,44.167382812499994],[26.847753906250006,44.14619140625],[26.4892578125,44.083984375],[26.2158203125,44.007275390625],[25.933398437500017,43.870556640625],[25.81884765625,43.766845703125],[25.686132812500006,43.711767578125],[25.4970703125,43.670800781249994],[25.15966796875,43.686328125],[24.808203125,43.738427734374994],[24.430566406250023,43.794384765625],[24.22675781250001,43.763476562499996],[23.95078125,43.786669921874996],[23.534570312500023,43.853564453124996],[23.224609375,43.873876953125],[22.919042968750006,43.83447265625],[22.86767578125,43.864550781249996],[22.8564453125,43.8990234375],[22.868261718750006,43.947900390624994],[22.91132812500001,43.987207031249994],[22.9853515625,44.016992187499994],[23.0244140625,44.047216796875],[23.02851562500001,44.077978515625],[22.945410156250006,44.127294921875],[22.775195312500017,44.195214843749994],[22.705078125,44.23779296875]],[[22.705078125,44.23779296875],[22.687890625000023,44.248291015625],[22.68330078125001,44.286474609375],[22.64794921875,44.316455078124996],[22.581835937500017,44.338330078125],[22.530664062500023,44.377978515624996],[22.494531250000023,44.435449218749994],[22.502343750000023,44.489599609375],[22.554003906250017,44.540332031249996],[22.6201171875,44.562353515625],[22.70078125,44.555517578125],[22.734375,44.569921875],[22.72089843750001,44.605517578124996],[22.64208984375,44.6509765625],[22.49765625,44.70625],[22.350683593750006,44.676123046875],[22.200976562500017,44.560693359374994],[22.093066406250017,44.541943359375],[22.026953125,44.619873046875],[21.909277343750006,44.66611328125],[21.740234375,44.6806640625],[21.636132812500023,44.71044921875],[21.597070312500023,44.755419921874996],[21.52314453125001,44.790087890624996],[21.36005859375001,44.82666015625],[21.35791015625,44.86181640625],[21.384375,44.870068359375],[21.442187500000017,44.873388671875],[21.519921875000023,44.880810546875],[21.532324218750006,44.900683593749996],[21.533203125,44.918847656249994],[21.471972656250017,44.9419921875],[21.409960937500017,44.95771484375],[21.377734375000017,44.9734375],[21.35703125,44.990771484374996],[21.352929687500023,45.008984375],[21.37109375,45.021386718749994],[21.395898437500023,45.022216796875],[21.420703125000017,45.032958984375],[21.434472656250023,45.075146484375],[21.467871093750006,45.10986328125],[21.491796875,45.122265625],[21.490234375,45.147900390625],[21.465429687500006,45.171875],[21.431445312500017,45.192529296874994],[21.381738281250023,45.205078125],[21.226464843750023,45.24130859375],[21.147851562500023,45.291748046875],[21.099902343750017,45.2935546875],[21.023828125000023,45.321533203125],[20.941796875000023,45.36533203125],[20.87080078125001,45.427539062499996],[20.794042968750006,45.46787109375],[20.774218750000017,45.484423828124996],[20.7724609375,45.50009765625],[20.786523437500023,45.517480468749994],[20.786035156250023,45.536474609375],[20.76582031250001,45.597460937499996],[20.779296875,45.662011718749994],[20.775781250000023,45.722509765625],[20.775,45.749804687499996],[20.760156250000023,45.758105468749996],[20.746875,45.748974609375],[20.727832031250017,45.73740234375],[20.709277343750017,45.735253906249994],[20.652734375000023,45.77939453125],[20.581152343750006,45.869482421875],[20.532617187500023,45.89951171875],[20.43798828125,45.940771484375],[20.35859375000001,45.975488281249994],[20.301367187500006,46.050683593749994],[20.241796875,46.10859375]],[[22.87666015625001,47.947265625],[22.912890625000017,47.964257812499994],[23.054785156250006,48.00654296875],[23.0908203125,48.049121093749996],[23.139453125000017,48.08740234375],[23.20263671875,48.084521484374996],[23.408203125,47.989990234375],[23.628710937500017,47.995849609375],[23.669042968750006,47.992333984374994],[23.682031250000023,47.990380859374994],[23.708984375,47.9826171875],[24.001855468750023,47.935791015625],[24.04736328125,47.941015625],[24.05976562500001,47.944775390625],[24.177734375,47.906054687499996],[24.28193359375001,47.911181640624996],[24.380957031250006,47.938037109374996],[24.48408203125001,47.947119140625],[24.578906250000017,47.931054687499994],[24.650976562500006,47.876513671874996],[24.837890625,47.76083984375],[24.893359375000017,47.7177734375],[24.979101562500006,47.72412109375],[25.073828125,47.745703125000176],[25.16962890625001,47.823095703125],[25.464257812500023,47.910791015624994],[25.689257812500017,47.932470703125],[25.90869140625,47.967578125],[26.162695312500006,47.992529296875],[26.236230468750023,48.064355468749994],[26.276953125,48.113232421875],[26.3056640625,48.203759765624994],[26.4423828125,48.22998046875],[26.57246093750001,48.248486328125],[26.618945312500017,48.25986328125],[26.713769531250023,48.263476562499996],[26.78730468750001,48.255810546875],[26.900976562500006,48.2111328125],[26.980761718750017,48.155029296875],[27.01220703125,48.110498046874994],[27.080371093750017,48.04765625],[27.15205078125001,47.959277343749996],[27.230859375000023,47.841748046875],[27.248144531250006,47.7822265625],[27.277929687500006,47.71796875],[27.3369140625,47.63974609375],[27.44921875,47.553125],[27.46484375,47.536669921874996],[27.51582031250001,47.475634765624996],[27.614062500000017,47.34052734375],[27.696191406250023,47.286425781249996],[27.767968750000023,47.227587890624996],[27.80234375,47.168310546875],[27.853808593750017,47.114501953125],[27.97421875,47.043212890625],[28.07177734375,46.978417968749994],[28.15,46.79208984375],[28.2046875,46.706396484375],[28.23945312500001,46.6408203125],[28.22265625,46.508056640625],[28.24433593750001,46.45126953125],[28.199609375000023,46.347558593749994],[28.119140625,46.138671875],[28.099707031250006,45.972607421875],[28.113574218750017,45.883056640625],[28.115527343750017,45.825537109375],[28.13496093750001,45.788867187499996],[28.15625,45.7130859375],[28.159765625,45.647119140624994],[28.130859375,45.628271484375],[28.09033203125,45.612744140625],[28.07470703125,45.598974609375],[28.111914062500006,45.569140625],[28.1625,45.51376953125],[28.2125,45.450439453125],[28.317675781250017,45.347119140625],[28.451269531250006,45.2921875],[28.7607421875,45.234130859375],[28.78828125000001,45.240966796875],[28.791406250000023,45.251904296875],[28.769824218750017,45.266894531249996],[28.7666015625,45.28623046875],[28.78173828125,45.309863281249996],[28.824316406250006,45.311083984374996],[28.894335937500017,45.289941406249994],[29.027441406250006,45.320556640625],[29.223535156250023,45.4029296875],[29.403710937500023,45.419677734375],[29.567675781250017,45.37080078125],[29.651953125,45.313916015625],[29.705859375000017,45.259912109374994],[29.6890625,45.193212890625],[29.678613281250023,45.151660156249996],[29.635351562500006,44.979638671874994],[29.60546875,44.915478515625],[29.557519531250023,44.843408203124994],[29.048242187500023,44.757568359375],[29.0810546875,44.798828125],[29.069140625000017,44.871142578124996],[29.047753906250023,44.925683593749994],[29.0953125,44.975048828125],[28.98066406250001,44.992919921875],[28.930566406250023,44.9658203125],[28.891503906250023,44.91865234375],[28.926171875000023,44.810009765625],[28.870410156250017,44.749951171875],[28.849023437500023,44.71630859375],[28.846484375000017,44.636865234374994],[28.813574218750006,44.602490234375],[28.807031250000023,44.5650390625],[28.88818359375,44.574755859374996],[28.85175781250001,44.506103515625],[28.69921875,44.37421875],[28.645410156250023,44.295654296875],[28.658593750000023,43.983837890625],[28.590722656250023,43.797412109374996],[28.585351562500023,43.742236328124996]],[[22.705078125,44.23779296875],[22.66748046875,44.22021484375],[22.6265625,44.194091796875],[22.603417968750023,44.148583984374994],[22.597460937500017,44.07529296875],[22.469042968750017,44.018017578125],[22.420800781250023,44.007421875],[22.399023437500006,43.96953125],[22.36542968750001,43.862109375],[22.36962890625,43.781298828124996],[22.38691406250001,43.740136718749994],[22.394824218750017,43.706640625],[22.436328125000017,43.665478515625],[22.47412109375,43.60224609375],[22.499121093750006,43.518847656249996],[22.554589843750023,43.454492187499994],[22.69697265625001,43.391064453125],[22.767578125,43.354150390624994],[22.819726562500023,43.300732421875],[22.85957031250001,43.25234375],[22.976855468750017,43.18798828125],[22.96796875000001,43.142041015625],[22.942285156250023,43.097070312499994],[22.91523437500001,43.075976562499996],[22.856835937500023,43.01826171875],[22.799902343750006,42.985742187499994],[22.706152343750006,42.883935546874994],[22.55810546875,42.878466796874996],[22.522753906250017,42.8703125],[22.466796875,42.84248046875],[22.439257812500017,42.791650390624994],[22.465625,42.75078125],[22.463281250000023,42.70947265625],[22.43623046875001,42.6291015625],[22.472070312500023,42.543310546875],[22.524218750000017,42.50390625],[22.53242187500001,42.481201171875],[22.523535156250006,42.440966796874996],[22.445703125000023,42.359130859375],[22.42207031250001,42.328857421875],[22.344042968750017,42.31396484375]],[[22.344042968750017,42.31396484375],[22.3173828125,42.321728515625],[22.27705078125001,42.349853515625],[22.23974609375,42.358154296875],[22.14667968750001,42.325],[22.052050781250017,42.304638671875],[21.9775390625,42.320068359375],[21.904101562500017,42.322070312499996],[21.85302734375,42.308398437499996],[21.81464843750001,42.303125],[21.7392578125,42.267724609374994],[21.618261718750006,42.242138671875],[21.5625,42.247509765625],[21.541601562500006,42.280810546874996],[21.518945312500023,42.328417968749996],[21.52998046875001,42.35],[21.60986328125,42.387451171875],[21.619042968750023,42.423242187499994],[21.73066406250001,42.595458984375],[21.75214843750001,42.651513671874994],[21.7529296875,42.669824218749994],[21.72382812500001,42.681982421875],[21.6625,42.681494140625],[21.390625,42.751416015625],[21.40302734375001,42.83154296875],[21.323144531250023,42.87470703125],[21.237109375000017,42.913232421874994],[21.22265625,42.956201171874994],[21.127050781250006,43.043017578124996],[21.057031250000023,43.091699218749994],[20.967675781250023,43.116015625],[20.890722656250006,43.151660156249996],[20.84443359375001,43.1734375],[20.823828125,43.21396484375],[20.823828125,43.237939453124994],[20.800585937500017,43.261083984375],[20.76337890625001,43.25859375],[20.700585937500023,43.226367187499996],[20.623144531250006,43.198632812499994],[20.609667968750017,43.17841796875],[20.637597656250023,43.13037109375],[20.657617187500023,43.099853515625],[20.648535156250006,43.070947265624994],[20.6240234375,43.0341796875],[20.47509765625,42.953027343749994],[20.458398437500023,42.924560546875],[20.48681640625,42.879052734374994],[20.468847656250006,42.85791015625],[20.344335937500006,42.827929687499996],[20.34765625,42.852783203125],[20.339941406250006,42.892871093749996],[20.268457031250023,42.935449218749994],[20.167871093750023,42.968505859375],[19.94404296875001,43.081640625],[19.858007812500006,43.096533203125],[19.781152343750023,43.109765625],[19.670996093750006,43.163964843749994],[19.61445312500001,43.1734375],[19.551562500000017,43.212255859375],[19.414648437500006,43.342822265624996],[19.298242187500023,43.413964843749994],[19.21875,43.449951171875],[19.19648437500001,43.485009765624994],[19.19160156250001,43.521044921874996],[19.1943359375,43.53330078125]],[[19.1943359375,43.53330078125],[19.254492187500006,43.584375],[19.30078125,43.591796875],[19.3603515625,43.59345703125],[19.39960937500001,43.567578125],[19.451269531250006,43.562060546874996],[19.47998046875,43.595166015625],[19.4951171875,43.642871093749996],[19.488183593750023,43.703564453125],[19.364062500000017,43.844775390624996],[19.257226562500023,43.943310546875],[19.245019531250023,43.9650390625],[19.26806640625,43.983447265624996],[19.305273437500006,43.993359375],[19.34521484375,43.985107421875],[19.44941406250001,43.97802734375],[19.54951171875001,43.987109375],[19.58369140625001,44.011083984375],[19.583789062500017,44.04345703125],[19.547167968750017,44.073486328125],[19.43017578125,44.1544921875],[19.3388671875,44.225830078125],[19.231542968750006,44.280566406249996],[19.15185546875,44.302539062499996],[19.128320312500023,44.3302734375],[19.118457031250017,44.3599609375],[19.127343750000023,44.41455078125],[19.132421875,44.483789062499994],[19.1513671875,44.52734375],[19.22314453125,44.6095703125],[19.291894531250023,44.69677734375],[19.33447265625,44.780664062499994],[19.356835937500023,44.858544921874994],[19.3486328125,44.880908203124996],[19.31269531250001,44.8974609375],[19.23681640625,44.9142578125],[19.13154296875001,44.899609375],[19.042089843750006,44.871337890625],[19.007128906250017,44.869189453124996]],[[19.007128906250017,44.869189453124996],[18.995507812500023,44.90400390625],[19.009570312500017,44.919384765625],[19.03759765625,44.917529296874996],[19.060546875,44.910986328125],[19.085253906250017,44.9267578125],[19.1,44.973779296874994],[19.062890625000023,45.13720703125],[19.129687500000017,45.151708984375],[19.130761718750023,45.17548828125],[19.13691406250001,45.196240234375],[19.205957031250023,45.167773437499996],[19.303027343750017,45.167285156249996],[19.388085937500023,45.172998046874994],[19.400976562500006,45.1890625],[19.4,45.2125],[19.38232421875,45.230615234374994],[19.35224609375001,45.245410156249996],[19.33027343750001,45.26806640625],[19.272851562500023,45.277978515624994],[19.093066406250017,45.3369140625],[19.004687500000017,45.39951171875],[19.007617187500017,45.4658203125],[19.033300781250006,45.502197265625],[19.064257812500017,45.514990234375],[19.055078125000023,45.527246093749994],[18.953710937500006,45.558007812499994],[18.917871093750023,45.600830078125],[18.947265625,45.655810546874996],[18.89453125,45.76708984375],[18.83906250000001,45.835742187499996],[18.8935546875,45.865527343749996],[18.90107421875001,45.907617187499994],[18.905371093750006,45.93173828125]],[[19.1943359375,43.53330078125],[19.164355468750017,43.535449218749996],[19.11279296875,43.527734375],[19.080078125,43.517724609374994],[19.0283203125,43.532519531249996],[18.97421875,43.542333984375],[18.95068359375,43.526660156249996],[18.940234375000017,43.496728515624994],[18.97382812500001,43.4423828125],[19.03671875,43.357324218749994],[19.026660156250017,43.292431640625],[18.97871093750001,43.285400390625],[18.934667968750006,43.339453125],[18.895605468750006,43.348193359374996],[18.85107421875,43.346337890624994],[18.74921875000001,43.283544921875],[18.674218750000023,43.230810546875],[18.656835937500006,43.1939453125],[18.629980468750006,43.153662109375],[18.621875,43.124609375],[18.623632812500006,43.027685546875],[18.48847656250001,43.012158203125],[18.46015625000001,42.997900390625],[18.44384765625,42.96845703125],[18.455078125,42.844091796875],[18.46601562500001,42.777246093749994],[18.543261718750017,42.674169921875],[18.5458984375,42.6416015625],[18.534960937500017,42.6201171875],[18.480078125,42.57919921875],[18.453906250000017,42.564501953124996],[18.436328125000017,42.559716796874994]],[[18.436328125000017,42.559716796874994],[18.346582031250023,42.586669921875],[18.304003906250017,42.599414062499996],[18.123925781250023,42.690576171874994],[18.04453125,42.741259765624996],[17.918847656250023,42.807421875],[17.84130859375,42.845068359375],[17.80195312500001,42.902246093749994],[17.740234375,42.915478515625],[17.667578125,42.897119140624994]],[[17.667578125,42.897119140624994],[17.58515625000001,42.938378906249994]],[[17.58515625000001,42.938378906249994],[17.643457031250023,42.959765625],[17.6578125,42.980078125],[17.650488281250006,43.006591796875],[17.624804687500017,43.042773437499996],[17.402246093750023,43.19892578125],[17.293066406250006,43.305615234375],[17.275292968750023,43.34384765625],[17.273828125000023,43.445751953125],[17.248046875,43.47021484375],[17.084570312500006,43.516552734375],[16.90185546875,43.6490234375],[16.713476562500006,43.77880859375],[16.68769531250001,43.8150390625],[16.59052734375001,43.91318359375],[16.472070312500023,44.002587890624994],[16.377539062500006,44.059619140624996],[16.300097656250017,44.12451171875],[16.214257812500023,44.215136718749996],[16.169824218750023,44.352001953125],[16.130273437500023,44.47373046875],[16.103417968750023,44.52099609375],[16.04902343750001,44.53759765625],[15.880078125000011,44.681933593749996],[15.736621093750017,44.7658203125],[15.737988281250011,44.856396484375],[15.761523437500017,45.00751953125],[15.7880859375,45.178955078125],[15.822851562500006,45.202783203124994],[15.88828125,45.215722656249994],[15.963183593750017,45.210791015625],[16.0283203125,45.189599609374994],[16.157324218750006,45.072216796875],[16.231054687500006,45.026611328125],[16.293359375000023,45.008837890624996],[16.365039062500017,45.058349609375],[16.453515625000023,45.162011718749994],[16.530664062500023,45.216699218749994],[16.790820312500017,45.196875],[16.91865234375001,45.2765625],[17.125390625000023,45.171777343749994],[17.21064453125001,45.156054687499996],[17.258691406250023,45.170556640624994],[17.324121093750023,45.163964843749994],[17.469140625000023,45.13330078125],[17.50263671875001,45.120361328125],[17.546289062500023,45.12255859375],[17.65351562500001,45.163476562499994],[17.69013671875001,45.1583984375],[17.812792968750017,45.078125],[17.874414062500023,45.07724609375],[17.948632812500023,45.111865234374996],[17.99628906250001,45.141796875],[18.13720703125,45.119384765625],[18.21796875000001,45.13291015625],[18.284960937500017,45.13427734375],[18.35761718750001,45.120556640625],[18.423925781250006,45.102001953125],[18.48828125,45.085839843749994],[18.66259765625,45.077441406249996],[18.74609375,45.026513671874994],[18.779394531250006,44.97724609375],[18.780175781250023,44.947216796875],[18.788378906250017,44.914892578125],[18.83642578125,44.883251953125],[18.941308593750023,44.865185546875],[19.007128906250017,44.869189453124996]],[[13.577929687500017,45.516894531249996],[13.615234375,45.4767578125],[13.878710937500017,45.428369140624994],[13.935644531250006,45.4498046875],[13.970117187500023,45.4826171875],[13.9703125,45.503369140625],[13.992773437500006,45.509423828124994],[14.085546875,45.477832031249996],[14.161230468750006,45.48515625],[14.283007812500017,45.486621093749996],[14.369921875000017,45.4814453125],[14.42734375,45.505761718749994],[14.505175781250017,45.59521484375],[14.533984375000017,45.645263671875],[14.56884765625,45.6572265625],[14.591796875,45.651269531249994],[14.608593750000011,45.610107421875],[14.649511718750006,45.571484375],[14.733593750000011,45.50849609375],[14.793066406250006,45.47822265625],[14.847070312500023,45.467333984374996],[14.9,45.49267578125],[14.95458984375,45.499902343749994],[15.110449218750006,45.45078125],[15.242089843750023,45.44140625],[15.339453125,45.467041015625],[15.32666015625,45.502294921875],[15.291210937500011,45.541552734374996],[15.283593750000023,45.5796875],[15.290136718750006,45.612646484375],[15.35693359375,45.6455078125],[15.353710937500011,45.659912109375],[15.27294921875,45.717724609375],[15.277050781250011,45.7326171875],[15.4541015625,45.797607421875],[15.624804687500017,45.834033203124996],[15.652148437500017,45.862158203125],[15.668066406250006,45.904443359374994],[15.675585937500017,45.983691406249996],[15.666210937500011,46.048486328124994],[15.596875,46.109228515625],[15.592578125000017,46.139990234375],[15.608984375,46.171923828124996],[15.635937500000011,46.200732421874996],[15.704199218750006,46.213232421875],[15.784277343750006,46.233984375],[15.847558593750023,46.257861328124996],[15.933300781250011,46.277636718749996],[16.00068359375001,46.30537109375],[16.066503906250006,46.371337890625],[16.1064453125,46.382226562499994],[16.227441406250023,46.372851562499996],[16.253320312500023,46.389111328125],[16.236718750000023,46.483837890625],[16.258398437500006,46.50791015625],[16.301171875000023,46.521386718749994],[16.321191406250023,46.534619140625],[16.427636718750023,46.5244140625],[16.516210937500006,46.499902343749994]],[[17.58515625000001,42.938378906249994],[17.53730468750001,42.962255859375],[17.329882812500017,43.114892578124994],[17.12939453125,43.2111328125],[16.903125,43.392431640625],[16.60029296875001,43.4640625],[16.393945312500023,43.543359375],[16.268945312500023,43.53125],[16.13105468750001,43.506298828125],[16.045996093750006,43.505517578124994],[15.985546875000011,43.519775390625],[15.942578125000011,43.5689453125],[15.949121093750023,43.606982421874996],[15.941503906250006,43.656640625],[15.820605468750017,43.7359375],[15.655664062500023,43.811279296875],[15.499414062500023,43.9087890625],[15.185839843750017,44.172119140625],[15.122949218750023,44.256787109375],[15.184667968750006,44.272900390625],[15.231347656250023,44.271435546875],[15.284277343750006,44.288818359375],[15.369726562500006,44.2892578125],[15.470996093750017,44.27197265625],[15.38134765625,44.328271484374994],[15.269824218750017,44.38349609375],[14.981347656250023,44.602929687499994],[14.895214843750011,44.706591796874996],[14.88525390625,44.818261718749994],[14.906542968750017,44.97138671875],[14.854589843750006,45.081005859375],[14.632031250000011,45.222900390625],[14.550488281250011,45.297705078125],[14.386132812500023,45.342138671875],[14.312695312500011,45.337792968749994],[14.2685546875,45.282519531249996],[14.236328125,45.15966796875],[14.090625,44.997607421874996],[14.0419921875,44.927197265625],[13.9658203125,44.83564453125],[13.899804687500023,44.829345703125],[13.860742187500023,44.83740234375],[13.742480468750017,44.991503906249996],[13.629296875000023,45.108203125],[13.613476562500011,45.163427734375],[13.603320312500017,45.231396484375],[13.5171875,45.481787109375],[13.577929687500017,45.516894531249996]],[[16.650683593750017,42.99658203125],[16.835546875,42.968652343749994],[16.971093750000023,42.981494140624996],[17.093652343750023,42.96435546875],[17.169824218750023,42.9326171875],[17.188281250000017,42.917041015624996],[17.08935546875,42.914892578125],[16.9775390625,42.927783203124996],[16.850683593750006,42.8955078125],[16.738867187500006,42.912744140624994],[16.696386718750006,42.93369140625],[16.666308593750017,42.959912109375],[16.650683593750017,42.99658203125]],[[17.19404296875001,43.12578125],[17.124121093750006,43.1154296875],[16.67919921875,43.12314453125],[16.5498046875,43.143896484375],[16.405859375,43.19736328125],[16.37646484375,43.213769531249994],[16.521386718750023,43.229248046875],[16.65595703125001,43.213769531249994],[16.697265625,43.174951171874994],[17.061132812500006,43.143896484375],[17.19404296875001,43.12578125]],[[16.785253906250006,43.270654296874994],[16.62744140625,43.26806640625],[16.490332031250006,43.286181640624996],[16.423144531250017,43.317236328125],[16.428125,43.343408203124994],[16.44892578125001,43.387060546875],[16.6015625,43.381884765624996],[16.834375,43.350830078125],[16.89130859375001,43.3146484375],[16.873632812500006,43.29794921875],[16.785253906250006,43.270654296874994]],[[15.231054687500006,44.062304687499996],[15.246679687500006,44.02705078125],[15.121875,44.093310546874996],[15.074609375000023,44.137841796874994],[15.065820312500023,44.157666015625],[15.231054687500006,44.062304687499996]],[[14.810253906250011,44.97705078125],[14.68701171875,44.955615234374996],[14.628320312500023,44.993945312499996],[14.612988281250011,45.025439453124996],[14.51171875,45.035400390625],[14.450390625000011,45.07919921875],[14.437890625000023,45.0986328125],[14.524609375000011,45.146826171875],[14.571093750000017,45.224755859374994],[14.629980468750006,45.178027343749996],[14.701171875,45.0900390625],[14.739160156250023,45.065478515624996],[14.810253906250011,44.97705078125]],[[14.831445312500023,44.758935546874994],[14.856640625000011,44.71484375],[14.7625,44.754638671875],[14.67822265625,44.769873046875],[14.660351562500011,44.7998046875],[14.672460937500006,44.824365234374994],[14.690527343750006,44.84814453125],[14.754199218750017,44.84482421875],[14.763769531250006,44.82138671875],[14.831445312500023,44.758935546874994]],[[15.1884765625,44.335742187499996],[15.16259765625,44.3091796875],[15.097949218750017,44.358154296875],[15.03857421875,44.393017578125],[14.99609375,44.434326171875],[14.912792968750011,44.48583984375],[14.884667968750023,44.544726562499996],[14.760449218750011,44.66474609375],[14.741894531250011,44.69736328125],[14.803808593750006,44.648681640625],[14.855371093750023,44.61826171875],[14.898046875,44.61083984375],[15.006445312500006,44.534228515624996],[15.112988281250011,44.4357421875],[15.239941406250011,44.3501953125],[15.213574218750011,44.347558593749994],[15.1884765625,44.335742187499996]],[[15.188769531250017,43.92236328125],[15.203027343750023,43.90771484375],[15.20166015625,43.897753906249996],[15.149804687500023,43.91181640625],[15.135839843750006,43.907275390624996],[14.891308593750011,44.125537109374996],[14.865039062500017,44.16796875],[14.952539062500023,44.1171875],[15.188769531250017,43.92236328125]],[[15.371386718750017,43.973828125],[15.437207031250011,43.89951171875],[15.374218750000011,43.914794921875],[15.30859375,43.960791015625],[15.27001953125,44.0107421875],[15.371386718750017,43.973828125]],[[14.488085937500017,44.660058593749994],[14.480371093750023,44.621240234374994],[14.41953125,44.6703125],[14.388867187500011,44.75830078125],[14.312402343750023,44.900390625],[14.302539062500017,44.9404296875],[14.342187500000023,44.979931640625],[14.340039062500011,45.019970703125],[14.285839843750011,45.14462890625],[14.33125,45.164990234375],[14.358203125000017,45.167431640625],[14.369140625,45.080957031249994],[14.39375,45.03125],[14.467382812500006,44.97021484375],[14.452539062500023,44.869189453124996],[14.467578125000017,44.725341796875],[14.482519531250006,44.693359375],[14.488085937500017,44.660058593749994]],[[17.607812500000023,42.76904296875],[17.744238281250006,42.700341796874994],[17.344140625000023,42.790380859375],[17.389550781250023,42.798632812499996],[17.431933593750017,42.800390625],[17.607812500000023,42.76904296875]],[[18.436328125000017,42.559716796874994],[18.438085937500006,42.52294921875],[18.476660156250006,42.481103515624994],[18.517480468750023,42.432910156249996],[18.3330078125,42.527880859374996],[18.16064453125,42.634033203125],[17.823828125,42.797412109374996],[17.5849609375,42.837158203125],[17.258203125000023,42.96845703125],[17.04541015625,43.014892578125],[17.12646484375,43.0255859375],[17.219824218750006,43.02587890625],[17.7236328125,42.85068359375],[17.667578125,42.897119140624994]],[[13.577929687500017,45.516894531249996],[13.637304687500006,45.5359375],[13.719824218750006,45.58759765625],[13.775976562500006,45.581982421875],[13.8447265625,45.59287109375],[13.874707031250011,45.61484375],[13.831152343750006,45.680419921875],[13.7216796875,45.761279296874996],[13.663476562500023,45.7919921875],[13.583398437500023,45.812353515625],[13.569628906250017,45.834130859374994],[13.613964843750011,45.961669921875],[13.6005859375,45.979785156249996],[13.509179687500023,45.973779296874994],[13.487695312500023,45.987109375],[13.480273437500017,46.009228515625],[13.486425781250006,46.03955078125],[13.548046875000011,46.089111328125],[13.616601562500023,46.133105468749996],[13.634960937500011,46.157763671874996],[13.632519531250011,46.177050781249996],[13.544726562500017,46.196582031249996],[13.491796875,46.216601562499996],[13.449804687500006,46.223535156249994],[13.420996093750006,46.212304687499994],[13.399609375000011,46.224951171875],[13.378222656250017,46.261621093749994],[13.399511718750006,46.317529296874994],[13.478515625,46.369189453124996],[13.563281250000017,46.415087890624996],[13.637109375000023,46.448535156249996],[13.6796875,46.462890625],[13.7,46.520263671875],[13.743945312500017,46.514306640624994],[13.831347656250017,46.51123046875],[13.928808593750006,46.498193359374994],[14.019628906250006,46.482177734375],[14.099511718750023,46.4619140625],[14.267285156250011,46.440722656249996],[14.419921875,46.4279296875],[14.465917968750006,46.41611328125],[14.503515625,46.417041015624996],[14.5498046875,46.399707031249996],[14.5771484375,46.412939453125],[14.596972656250017,46.436083984374996],[14.68017578125,46.463427734374996],[14.756738281250023,46.49912109375],[14.810546875,46.544580078124994],[14.840625,46.58046875],[14.893261718750011,46.605908203125],[14.949414062500011,46.613232421875],[15.000683593750011,46.6259765625],[15.216992187500011,46.64296875],[15.439257812500017,46.629638671875],[15.545312500000023,46.654638671875],[15.632617187500017,46.6984375],[15.76025390625,46.710742187499996],[15.766894531250017,46.711279296875],[15.957617187500006,46.677636718749994],[15.972265625,46.697216796875],[15.98046875,46.705859375],[15.976855468750017,46.8013671875],[16.037207031250006,46.84482421875],[16.093066406250017,46.86328125]],[[28.585351562500023,43.742236328124996],[28.561816406250017,43.501318359375],[28.465429687500006,43.389306640624994],[28.319628906250017,43.42685546875],[28.133691406250023,43.39560546875],[28.03515625,43.26826171875],[27.979296875000017,43.230517578124996],[27.92890625000001,43.1861328125],[27.896484375,43.020703125],[27.88886718750001,42.74970703125],[27.818359375,42.716650390625],[27.753710937500017,42.70654296875],[27.484765625000023,42.468066406249996],[27.639550781250023,42.4009765625],[27.70820312500001,42.349951171875],[27.821386718750006,42.2080078125],[27.982714843750017,42.047412109374996],[28.014453125000017,41.969042968749996],[27.879199218750017,41.986621093749996],[27.831933593750023,41.981298828125],[27.801660156250023,41.95654296875],[27.738867187500006,41.9615234375],[27.6611328125,41.961328125],[27.579882812500017,41.932910156249996],[27.53486328125001,41.920800781249994],[27.47480468750001,41.946875],[27.362890625,42.025048828124994],[27.294921875,42.079541015625],[27.24433593750001,42.09326171875],[27.193359375,42.077099609375],[27.01171875,42.058642578124996],[26.96875,42.02685546875],[26.884863281250006,41.991845703124994],[26.800390625,41.975146484374996],[26.67919921875,41.963330078125],[26.615332031250006,41.964892578124996],[26.5796875,41.94794921875],[26.549707031250023,41.896728515625],[26.529296875,41.8466796875],[26.51142578125001,41.8263671875],[26.3603515625,41.8015625],[26.327246093750006,41.772802734375],[26.31796875,41.744677734374996],[26.320898437500006,41.716552734375],[26.200585937500023,41.743798828124994],[26.107421875,41.72568359375],[26.085546875,41.704150390624996],[26.066015625,41.673242187499994],[26.076953125000017,41.640185546874996],[26.111230468750023,41.608203125],[26.1435546875,41.521533203124996],[26.155175781250023,41.434863281249996],[26.135351562500006,41.3857421875],[26.06640625,41.35068359375],[25.92333984375,41.311914062499994],[25.784960937500017,41.330419921875],[25.723925781250017,41.3150390625],[25.621484375000023,41.310107421874996],[25.52705078125001,41.2998046875],[25.381933593750006,41.26435546875],[25.25117187500001,41.243554687499994],[25.133398437500006,41.315771484375],[24.993554687500023,41.364990234375],[24.846875,41.39423828125],[24.795800781250023,41.372900390625],[24.773730468750017,41.356103515624994],[24.65107421875001,41.419970703124996],[24.595996093750017,41.442724609375],[24.5693359375,41.4673828125],[24.51826171875001,41.552539062499996],[24.487890625,41.555224609374996],[24.38671875,41.52353515625],[24.289453125000023,41.525048828124994],[24.230371093750023,41.530810546874996],[24.056054687500023,41.527246093749994],[24.03291015625001,41.469091796875],[24.011328125,41.46005859375],[23.973535156250023,41.452294921874994],[23.880859375,41.455957031249994],[23.762304687500006,41.412988281249994],[23.635156250000023,41.386767578124996],[23.53583984375001,41.386035156249996],[23.433398437500017,41.398730468749996],[23.3720703125,41.3896484375],[23.23984375,41.3849609375],[23.15595703125001,41.322070312499996],[23.02558593750001,41.325634765625],[22.916015625,41.336279296875],[22.9296875,41.356103515624994],[22.951464843750017,41.605615234374994],[23.005664062500017,41.716943359374994],[23.00361328125001,41.73984375],[22.991992187500017,41.757177734375],[22.943945312500006,41.77509765625],[22.9091796875,41.835205078125],[22.836816406250023,41.993603515625],[22.79609375000001,42.025683593749996],[22.68232421875001,42.059130859374996],[22.58271484375001,42.104833984375],[22.49824218750001,42.165087890624996],[22.344042968750017,42.31396484375]]],"bbox":[12.089746093750023,41.243554687499994,29.705859375000017,51.03779296875]}
